NORAD_CAT_ID,OBJECT_NAME,OBJECT_TYPE,EPOCH,MEAN_MOTION,ECCENTRICITY,INCLINATION,RA_OF_ASC_NODE,ARG_OF_PERICENTER,MEAN_ANOMALY,BSTAR,MEAN_MOTION_DOT,MEAN_MOTION_DDOT,TLE_LINE0,TLE_LINE1,TLE_LINE2,SEMIMAJOR_AXIS,PERIOD,APOGEE,PERIGEE,DECAYED
53975.0,STARLINK-5137,PAYLOAD,2024-05-28 12:16:16,15.08843746,0.0001168,53.2159,257.4576,117.7573,242.3537,3.6694e-05,2.96e-06,0.0,0 STARLINK-5137,1 53975U 22125M   24149.51129677  .00000296  00000-0  36694-4 0  9998,2 53975  53.2159 257.4576 0001168 117.7573 242.3537 15.08843746 91315,6917.869,95.437,540.542,538.926,0.0
53975.0,STARLINK-5137,PAYLOAD,2024-05-28 13:51:39,15.08843402,0.0001161,53.2159,257.1603,117.4303,242.6807,2.4593e-05,1.04e-06,0.0,0 STARLINK-5137,1 53975U 22125M   24149.57753660  .00000104  00000-0  24593-4 0  9992,2 53975  53.2159 257.1603 0001161 117.4303 242.6807 15.08843402 91259,6917.87,95.437,540.538,538.932,0.0
53975.0,STARLINK-5137,PAYLOAD,2024-05-29 12:07:03,15.08838326,0.0001061,53.217,252.9978,99.6351,260.4761,5.6667e-05,6.14e-06,0.0,0 STARLINK-5137,1 53975U 22125M   24150.50489999  .00000614  00000-0  56667-4 0  9991,2 53975  53.2170 252.9978 0001061  99.6351 260.4761 15.08838326 91462,6917.886,95.438,540.484,539.017,0.0
53975.0,STARLINK-5137,PAYLOAD,2024-05-29 13:42:26,15.08838837,0.0001092,53.2172,252.7008,100.8357,259.2759,5.5805e-05,6e-06,0.0,0 STARLINK-5137,1 53975U 22125M   24150.57113957  .00000600  00000-0  55805-4 0  9994,2 53975  53.2172 252.7008 0001092 100.8357 259.2759 15.08838837 91405,6917.884,95.438,540.504,538.994,0.0
53975.0,STARLINK-5137,PAYLOAD,2024-05-30 13:33:13,15.08842492,0.0001115,53.2173,248.2406,87.5254,272.5866,0.00012902,1.766e-05,0.0,0 STARLINK-5137,1 53975U 22125M   24151.56473773  .00001766  00000-0  12902-3 0  9993,2 53975  53.2173 248.2406 0001115  87.5254 272.5866 15.08842492 91556,6917.873,95.437,540.509,538.966,0.0
53975.0,STARLINK-5137,PAYLOAD,2024-05-31 13:23:59,15.08847997,0.0001139,53.2176,243.7815,90.3221,269.7901,0.00015708,2.214e-05,0.0,0 STARLINK-5137,1 53975U 22125M   24152.55833205  .00002214  00000-0  15708-3 0  9999,2 53975  53.2176 243.7815 0001139  90.3221 269.7901 15.08847997 91705,6917.856,95.437,540.509,538.933,0.0
53975.0,STARLINK-5137,PAYLOAD,2024-05-31 22:56:17,15.08858378,0.0001179,53.2184,242.001,89.0771,271.0356,0.00021337,3.111e-05,0.0,0 STARLINK-5137,1 53975U 22125M   24152.95576141  .00003111  00000-0  21337-3 0  9998,2 53975  53.2184 242.0010 0001179  89.0771 271.0356 15.08858378 91831,6917.824,95.436,540.505,538.874,0.0
53975.0,STARLINK-5137,PAYLOAD,2024-06-01 11:39:24,15.08824662,0.0001399,53.2174,239.6204,81.8771,278.238,-0.00023928,-4.092e-05,0.0,0 STARLINK-5137,1 53975U 22125M   24153.48570279 -.00004092  00000-0 -23928-3 0  9992,2 53975  53.2174 239.6204 0001399  81.8771 278.2380 15.08824662 91915,6917.927,95.439,540.76,538.824,0.0
53975.0,STARLINK-5137,PAYLOAD,2024-06-02 05:08:39,15.08832407,0.0001528,53.2185,236.3493,84.7571,275.3596,6.3794e-05,7.27e-06,0.0,0 STARLINK-5137,1 53975U 22125M   24154.21434424  .00000727  00000-0  63794-4 0  9990,2 53975  53.2185 236.3493 0001528  84.7571 275.3596 15.08832407 92021,6917.904,95.438,540.826,538.712,0.0
53975.0,STARLINK-5137,PAYLOAD,2024-06-02 11:30:11,15.0883808,0.0001301,53.2161,235.1609,87.6669,272.4472,0.00022734,3.332e-05,0.0,0 STARLINK-5137,1 53975U 22125M   24154.47930230  .00003332  00000-0  22734-3 0  9997,2 53975  53.2161 235.1609 0001301  87.6669 272.4472 15.08838080 91999,6917.886,95.438,540.651,538.851,0.0
53975.0,STARLINK-5137,PAYLOAD,2024-06-02 22:37:54,15.08836533,0.000125,53.2149,233.0785,86.2811,273.8324,0.00040245,6.122e-05,0.0,0 STARLINK-5137,1 53975U 22125M   24154.94298779  .00006122  00000-0  40245-3 0  9991,2 53975  53.2149 233.0785 0001250  86.2811 273.8324 15.08836533 92065,6917.891,95.438,540.621,538.891,0.0
53975.0,STARLINK-5137,PAYLOAD,2024-06-03 11:20:59,15.08850485,0.0001261,53.2146,230.6996,83.4806,276.633,0.00073808,0.00011481,0.0,0 STARLINK-5137,1 53975U 22125M   24155.47290604  .00011481  00000-0  73808-3 0  9994,2 53975  53.2146 230.6996 0001261  83.4806 276.6330 15.08850485 92211,6917.848,95.437,540.586,538.841,0.0
53975.0,STARLINK-5137,PAYLOAD,2024-06-03 22:28:40,15.08866169,0.0001305,53.2149,228.618,81.8906,278.2234,0.00098284,0.000154,0.0,0 STARLINK-5137,1 53975U 22125M   24155.93657971  .00015400  00000-0  98284-3 0  9999,2 53975  53.2149 228.6180 0001305  81.8906 278.2234 15.08866169 92215,6917.8,95.436,540.568,538.763,0.0
53975.0,STARLINK-5137,PAYLOAD,2024-06-04 11:11:45,15.08851442,0.0001415,53.2145,226.2386,90.4444,269.671,0.00031371,4.71e-05,0.0,0 STARLINK-5137,1 53975U 22125M   24156.46650012  .00004710  00000-0  31371-3 0  9993,2 53975  53.2145 226.2386 0001415  90.4444 269.6710 15.08851442 92365,6917.845,95.437,540.689,538.732,0.0
53975.0,STARLINK-5137,PAYLOAD,2024-06-05 04:41:00,15.08842755,0.000144,53.2153,222.9679,93.4378,266.6779,0.00015382,2.161e-05,0.0,0 STARLINK-5137,1 53975U 22125M   24157.19514178  .00002161  00000-0  15382-3 0  9998,2 53975  53.2153 222.9679 0001440  93.4378 266.6779 15.08842755 92470,6917.872,95.437,540.733,538.741,0.0
53975.0,STARLINK-5137,PAYLOAD,2024-06-05 11:02:33,15.08835699,0.0001406,53.2154,221.7775,95.6347,264.4806,-5.2069e-05,-1.116e-05,0.0,0 STARLINK-5137,1 53975U 22125M   24157.46010538 -.00001116  00000-0 -52069-4 0  9994,2 53975  53.2154 221.7775 0001406  95.6347 264.4806 15.08835699 92440,6917.894,95.438,540.731,538.786,0.0
53975.0,STARLINK-5137,PAYLOAD,2024-06-06 10:53:20,15.08843336,0.0001239,53.2158,217.319,95.2562,264.8572,0.00019309,2.787e-05,0.0,0 STARLINK-5137,1 53975U 22125M   24158.45370439  .00002787  00000-0  19309-3 0  9995,2 53975  53.2158 217.3190 0001239  95.2562 264.8572 15.08843336 92592,6917.87,95.437,540.592,538.878,0.0
53975.0,STARLINK-5137,PAYLOAD,2024-06-07 09:08:44,15.08833898,0.0001252,53.2148,213.1571,93.6802,266.4333,0.00016174,2.287e-05,0.0,0 STARLINK-5137,1 53975U 22125M   24159.38107057  .00002287  00000-0  16174-3 0  9994,2 53975  53.2148 213.1571 0001252  93.6802 266.4333 15.08833898 92801,6917.899,95.438,540.63,538.898,0.0
53975.0,STARLINK-5137,PAYLOAD,2024-06-08 02:37:58,15.08844136,0.0001245,53.2142,209.8822,80.4577,279.6556,9.9876e-05,1.302e-05,0.0,0 STARLINK-5137,1 53975U 22125M   24160.10970562  .00001302  00000-0  99876-4 0  9993,2 53975  53.2142 209.8822 0001245  80.4577 279.6556 15.08844136 92913,6917.868,95.437,540.594,538.871,0.0
53975.0,STARLINK-5137,PAYLOAD,2024-06-08 10:34:53,15.08857716,0.000119,53.2139,208.3962,85.967,274.1458,-2.9573e-05,-7.59e-06,0.0,0 STARLINK-5137,1 53975U 22125M   24160.44089679 -.00000759  00000-0 -29573-4 0  9994,2 53975  53.2139 208.3962 0001190  85.9670 274.1458 15.08857716 92965,6917.826,95.436,540.514,538.868,0.0
53975.0,STARLINK-5137,PAYLOAD,2024-06-08 20:07:12,15.08854196,0.0001237,53.2139,206.6119,83.7294,276.3839,0.00016895,2.403e-05,0.0,0 STARLINK-5137,1 53975U 22125M   24160.83833677  .00002403  00000-0  16895-3 0  9990,2 53975  53.2139 206.6119 0001237  83.7294 276.3839 15.08854196 92955,6917.837,95.437,540.558,538.846,0.0
53975.0,STARLINK-5137,PAYLOAD,2024-06-09 12:01:05,15.0881991,0.000128,53.2142,203.6391,102.8462,257.2673,-0.00014853,-2.65e-05,0.0,0 STARLINK-5137,1 53975U 22125M   24161.50076223 -.00002650  00000-0 -14853-3 0  9999,2 53975  53.2142 203.6391 0001280 102.8462 257.2673 15.08819910 93125,6917.942,95.439,540.692,538.921,0.0
53975.0,STARLINK-5137,PAYLOAD,2024-06-09 19:58:01,15.08825509,0.0001268,53.2147,202.1525,91.3667,268.7471,0.00010974,1.458e-05,0.0,0 STARLINK-5137,1 53975U 22125M   24161.83196472  .00001458  00000-0  10974-3 0  9997,2 53975  53.2147 202.1525 0001268  91.3667 268.7471 15.08825509 93100,6917.925,95.438,540.667,538.912,0.0
53975.0,STARLINK-5137,PAYLOAD,2024-06-10 02:19:34,15.08828871,0.0001277,53.215,200.9619,90.0152,270.0987,0.00024769,3.655e-05,0.0,0 STARLINK-5137,1 53975U 22125M   24162.09692747  .00003655  00000-0  24769-3 0  9990,2 53975  53.2150 200.9619 0001277  90.0152 270.0987 15.08828871 93214,6917.914,95.438,540.663,538.896,0.0
53975.0,STARLINK-5137,PAYLOAD,2024-06-10 10:16:30,15.08851523,0.0001373,53.2143,199.4754,94.1874,265.9275,0.0015646,0.00024708,0.0,0 STARLINK-5137,1 53975U 22125M   24162.42812911  .00024708  00000-0  15646-2 0  9999,2 53975  53.2143 199.4754 0001373  94.1874 265.9275 15.08851523 93269,6917.845,95.437,540.66,538.76,0.0
53975.0,STARLINK-5137,PAYLOAD,2024-06-10 19:48:48,15.0886393,0.0001369,53.2141,197.6914,91.9229,268.192,0.0017135,0.00027106,0.0,0 STARLINK-5137,1 53975U 22125M   24162.82556641  .00027106  00000-0  17135-2 0  9998,2 53975  53.2141 197.6914 0001369  91.9229 268.1920 15.08863930 93255,6917.807,95.436,540.619,538.725,0.0
53975.0,STARLINK-5137,PAYLOAD,2024-06-11 02:10:21,15.08867952,0.0001367,53.2147,196.5024,91.4109,268.7039,0.0013607,0.0002145,0.0,0 STARLINK-5137,1 53975U 22125M   24163.09052262  .00021450  00000-0  13607-2 0  9994,2 53975  53.2147 196.5024 0001367  91.4109 268.7039 15.08867952 93368,6917.795,95.436,540.606,538.714,0.0
53975.0,STARLINK-5137,PAYLOAD,2024-06-11 08:31:53,15.08878349,0.0001444,53.2146,195.3129,90.4043,269.7114,0.0016598,0.00026254,0.0,0 STARLINK-5137,1 53975U 22125M   24163.35547774  .00026254  00000-0  16598-2 0  9999,2 53975  53.2146 195.3129 0001444  90.4043 269.7114 15.08878349 93336,6917.763,95.435,540.627,538.629,0.0
53975.0,STARLINK-5137,PAYLOAD,2024-06-12 02:01:07,15.08864682,0.0002438,53.2146,192.0421,92.3017,267.8255,0.00036696,5.561e-05,0.0,0 STARLINK-5137,1 53975U 22125M   24164.08411084  .00005561  00000-0  36696-3 0  9994,2 53975  53.2146 192.0421 0002438  92.3017 267.8255 15.08864682 93511,6917.805,95.436,541.357,537.983,0.0
53975.0,STARLINK-5137,PAYLOAD,2024-06-12 06:47:16,15.08849778,0.0001495,53.2147,191.1498,97.0305,263.0858,-7.068e-05,-1.413e-05,0.0,0 STARLINK-5137,1 53975U 22125M   24164.28283074 -.00001413  00000-0 -70680-4 0  9998,2 53975  53.2147 191.1498 0001495  97.0305 263.0858 15.08849778 93471,6917.851,95.437,540.75,538.681,0.0
